NORAD_CAT_ID,OBJECT_NAME,OBJECT_TYPE,EPOCH,MEAN_MOTION,ECCENTRICITY,INCLINATION,RA_OF_ASC_NODE,ARG_OF_PERICENTER,MEAN_ANOMALY,BSTAR,MEAN_MOTION_DOT,MEAN_MOTION_DDOT,TLE_LINE0,TLE_LINE1,TLE_LINE2,SEMIMAJOR_AXIS,PERIOD,APOGEE,PERIGEE,DECAYED
52681.0,STARLINK-4068,PAYLOAD,2023-06-15 13:43:41,15.0890066,0.0001418,53.217,304.8425,68.1971,291.9172,-0.00072253,-0.00011788,0.0,0 STARLINK-4068,1 52681U 22053AB  23166.57200583 -.00011788  00000-0 -72253-3 0  9991,2 52681  53.2170 304.8425 0001418  68.1971 291.9172 15.08900660 60455,6917.695,95.434,540.541,538.579,0.0
52681.0,STARLINK-4068,PAYLOAD,2023-06-15 18:29:52,15.0885028,0.0001101,53.217,303.9505,82.2521,277.8596,0.00016995,2.419e-05,0.0,0 STARLINK-4068,1 52681U 22053AB  23166.77074504  .00002419  00000-0  16995-3 0  9995,2 52681  53.2170 303.9505 0001101  82.2521 277.8596 15.08850280 60096,6917.849,95.437,540.476,538.952,0.0
52681.0,STARLINK-4068,PAYLOAD,2023-06-16 02:26:48,15.08840188,0.0001086,53.2172,302.4639,97.1798,262.9317,0.00029622,4.43e-05,0.0,0 STARLINK-4068,1 52681U 22053AB  23167.10194921  .00004430  00000-0  29622-3 0  9995,2 52681  53.2172 302.4639 0001086  97.1798 262.9317 15.08840188 60141,6917.88,95.438,540.496,538.994,0.0
52681.0,STARLINK-4068,PAYLOAD,2023-06-16 08:48:20,15.08846194,0.0001106,53.2163,301.2743,80.9823,279.1295,0.00024385,3.596e-05,0.0,0 STARLINK-4068,1 52681U 22053AB  23167.36690892  .00003596  00000-0  24385-3 0  9994,2 52681  53.2163 301.2743 0001106  80.9823 279.1295 15.08846194 60571,6917.861,95.437,540.492,538.961,0.0
52681.0,STARLINK-4068,PAYLOAD,2023-06-16 15:09:52,15.0885484,9.85e-05,53.2162,300.0843,86.717,273.3935,0.00033865,5.108e-05,0.0,0 STARLINK-4068,1 52681U 22053AB  23167.63186304  .00005108  00000-0  33865-3 0  9996,2 52681  53.2162 300.0843 0000985  86.7170 273.3935 15.08854840 60227,6917.835,95.437,540.381,539.019,0.0
52681.0,STARLINK-4068,PAYLOAD,2023-06-16 18:20:38,15.08860919,0.0001077,53.2161,299.4896,87.011,273.1005,0.00041527,6.331e-05,0.0,0 STARLINK-4068,1 52681U 22053AB  23167.76433952  .00006331  00000-0  41527-3 0  9997,2 52681  53.2161 299.4896 0001077  87.0110 273.1005 15.08860919 60631,6917.816,95.436,540.426,538.936,0.0
52681.0,STARLINK-4068,PAYLOAD,2023-06-17 08:39:08,15.08832806,0.0001062,53.2159,296.8134,94.3284,265.783,-0.00021368,-3.686e-05,0.0,0 STARLINK-4068,1 52681U 22053AB  23168.36051023 -.00003686  00000-0 -21368-3 0  9992,2 52681  53.2159 296.8134 0001062  94.3284 265.7830 15.08832806 60335,6917.902,95.438,540.502,539.033,0.0
52681.0,STARLINK-4068,PAYLOAD,2023-06-17 16:36:04,15.08826787,9.93e-05,53.2163,295.3264,99.7116,260.3988,-0.00023746,-4.063e-05,0.0,0 STARLINK-4068,1 52681U 22053AB  23168.69171431 -.00004063  00000-0 -23746-3 0  9996,2 52681  53.2163 295.3264 0000993  99.7116 260.3988 15.08826787 60777,6917.921,95.438,540.473,539.099,0.0
52681.0,STARLINK-4068,PAYLOAD,2023-06-18 18:02:14,15.08846643,9.41e-05,53.2167,290.568,103.2596,256.8501,0.00046082,7.055e-05,0.0,0 STARLINK-4068,1 52681U 22053AB  23169.75155378  .00007055  00000-0  46082-3 0  9996,2 52681  53.2167 290.5680 0000941 103.2596 256.8501 15.08846643 60545,6917.86,95.437,540.376,539.074,0.0
52681.0,STARLINK-4068,PAYLOAD,2023-06-19 08:20:42,15.08845218,0.0001201,53.2166,287.8906,116.4161,243.6954,0.00032402,4.873e-05,0.0,0 STARLINK-4068,1 52681U 22053AB  23170.34771438  .00004873  00000-0  32402-3 0  9990,2 52681  53.2166 287.8906 0001201 116.4161 243.6954 15.08845218 60631,6917.864,95.437,540.56,538.899,0.0
52681.0,STARLINK-4068,PAYLOAD,2023-06-19 14:42:14,15.08846317,0.0001049,53.2165,286.7019,103.7725,256.3384,0.00030803,4.619e-05,0.0,0 STARLINK-4068,1 52681U 22053AB  23170.61267331  .00004619  00000-0  30803-3 0  9993,2 52681  53.2165 286.7019 0001049 103.7725 256.3384 15.08846317 61065,6917.861,95.437,540.452,539.0,0.0
52681.0,STARLINK-4068,PAYLOAD,2023-06-19 19:28:24,15.08851426,0.0001109,53.2166,285.8098,104.2642,255.8473,0.000322,4.842e-05,0.0,0 STARLINK-4068,1 52681U 22053AB  23170.81138990  .00004842  00000-0  32200-3 0  9994,2 52681  53.2166 285.8098 0001109 104.2642 255.8473 15.08851426 61097,6917.845,95.437,540.478,538.943,0.0
52681.0,STARLINK-4068,PAYLOAD,2023-06-20 00:14:34,15.08839035,0.0001773,53.2166,284.9166,108.2109,251.9076,3.2252e-05,2.25e-06,0.0,0 STARLINK-4068,1 52681U 22053AB  23171.01011587  .00000225  00000-0  32252-4 0  9998,2 52681  53.2166 284.9166 0001773 108.2109 251.9076 15.08839035 60730,6917.883,95.438,540.975,538.522,0.0
52681.0,STARLINK-4068,PAYLOAD,2023-06-20 06:36:06,15.0884193,0.0001602,53.2168,283.7269,105.7437,254.3732,-2.9008e-05,-7.5e-06,0.0,0 STARLINK-4068,1 52681U 22053AB  23171.27507276 -.00000750  00000-0 -29008-4 0  9991,2 52681  53.2168 283.7269 0001602 105.7437 254.3732 15.08841930 61161,6917.874,95.437,540.848,538.631,0.0
52681.0,STARLINK-4068,PAYLOAD,2023-06-20 17:43:48,15.0884434,9.71e-05,53.2156,281.6494,102.5914,257.5187,3.18e-05,2.18e-06,0.0,0 STARLINK-4068,1 52681U 22053AB  23171.73875004  .00000218  00000-0  31800-4 0  9999,2 52681  53.2156 281.6494 0000971 102.5914 257.5187 15.08844340 61233,6917.867,95.437,540.404,539.06,0.0
52681.0,STARLINK-4068,PAYLOAD,2023-06-21 12:48:25,15.08843583,9.46e-05,53.2153,278.0808,99.9151,260.1948,9.3062e-05,1.194e-05,0.0,0 STARLINK-4068,1 52681U 22053AB  23172.53363204  .00001194  00000-0  93062-4 0  9994,2 52681  53.2153 278.0808 0000946  99.9151 260.1948 15.08843583 60965,6917.869,95.437,540.389,539.08,0.0
52681.0,STARLINK-4068,PAYLOAD,2023-06-21 14:23:48,15.0884639,9.3e-05,53.2158,277.7835,94.789,265.3208,0.00017065,2.43e-05,0.0,0 STARLINK-4068,1 52681U 22053AB  23172.59987125  .00002430  00000-0  17065-3 0  9996,2 52681  53.2158 277.7835 0000930  94.7890 265.3208 15.08846390 61362,6917.861,95.437,540.369,539.082,0.0
52681.0,STARLINK-4068,PAYLOAD,2023-06-22 06:17:40,15.08836288,9.13e-05,53.2153,274.8103,93.3628,266.7468,8.3457e-05,1.041e-05,0.0,0 STARLINK-4068,1 52681U 22053AB  23173.26227657  .00001041  00000-0  83457-4 0  9994,2 52681  53.2153 274.8103 0000913  93.3628 266.7468 15.08836288 61074,6917.892,95.438,540.388,539.125,0.0
52681.0,STARLINK-4068,PAYLOAD,2023-06-23 14:05:22,15.08851808,8.4e-05,53.2153,268.8628,76.9304,283.1781,0.00022295,3.263e-05,0.0,0 STARLINK-4068,1 52681U 22053AB  23174.58707171  .00003263  00000-0  22295-3 0  9994,2 52681  53.2153 268.8628 0000840  76.9304 283.1781 15.08851808 61274,6917.844,95.437,540.29,539.128,0.0
52681.0,STARLINK-4068,PAYLOAD,2023-06-23 23:37:42,15.08843907,8.52e-05,53.2153,267.0787,72.3989,287.7096,0.00017926,2.567e-05,0.0,0 STARLINK-4068,1 52681U 22053AB  23174.98451535  .00002567  00000-0  17926-3 0  9999,2 52681  53.2153 267.0787 0000852  72.3989 287.7096 15.08843907 61330,6917.868,95.437,540.323,539.144,0.0
52681.0,STARLINK-4068,PAYLOAD,2023-06-24 15:31:33,15.08842913,0.0001071,53.2153,264.102,104.3478,255.7633,0.00014176,1.969e-05,0.0,0 STARLINK-4068,1 52681U 22053AB  23175.64691673  .00001969  00000-0  14176-3 0  9991,2 52681  53.2153 264.1020 0001071 104.3478 255.7633 15.08842913 61430,6917.871,95.437,540.477,538.996,0.0
52681.0,STARLINK-4068,PAYLOAD,2023-06-26 08:51:35,15.08836067,0.0001026,53.2161,256.3723,97.6529,262.458,6.1788e-05,6.96e-06,0.0,0 STARLINK-4068,1 52681U 22053AB  23177.36916124  .00000696  00000-0  61788-4 0  9991,2 52681  53.2161 256.3723 0001026  97.6529 262.4580 15.08836067 61690,6917.892,95.438,540.467,539.048,0.0
52681.0,STARLINK-4068,PAYLOAD,2023-06-27 11:53:08,15.08844277,9.68e-05,53.2153,251.3182,91.9099,268.2004,0.00020465,2.971e-05,0.0,0 STARLINK-4068,1 52681U 22053AB  23178.49524070  .00002971  00000-0  20465-3 0  9995,2 52681  53.2153 251.3182 0000968  91.9099 268.2004 15.08844277 61864,6917.867,95.437,540.402,539.063,0.0
52681.0,STARLINK-4068,PAYLOAD,2023-06-28 10:08:32,15.08842076,0.0001104,53.2163,247.1579,106.3596,253.7517,0.00014937,2.09e-05,0.0,0 STARLINK-4068,1 52681U 22053AB  23179.42260175  .00002090  00000-0  14937-3 0  9991,2 52681  53.2163 247.1579 0001104 106.3596 253.7517 15.08842076 62004,6917.874,95.437,540.503,538.975,0.0
52681.0,STARLINK-4068,PAYLOAD,2023-06-29 09:59:20,15.08837672,0.0001043,53.216,242.6964,98.22,261.891,3.0327e-07,-2.83e-06,0.0,0 STARLINK-4068,1 52681U 22053AB  23180.41620403 -.00000283  00000-0  30327-6 0  9993,2 52681  53.2160 242.6964 0001043  98.2200 261.8910 15.08837672 62151,6917.888,95.438,540.474,539.031,0.0
52681.0,STARLINK-4068,PAYLOAD,2023-06-30 13:00:52,15.08847351,9.83e-05,53.2165,237.6374,84.6521,275.4583,0.00011263,1.506e-05,0.0,0 STARLINK-4068,1 52681U 22053AB  23181.54227912  .00001506  00000-0  11263-3 0  9999,2 52681  53.2165 237.6374 0000983  84.6521 275.4583 15.08847351 62323,6917.858,95.437,540.403,539.043,0.0
52681.0,STARLINK-4068,PAYLOAD,2023-06-30 20:57:48,15.08841179,0.0001009,53.2165,236.1511,87.0654,273.0454,4.4611e-05,4.22e-06,0.0,0 STARLINK-4068,1 52681U 22053AB  23181.87348355  .00000422  00000-0  44611-4 0  9990,2 52681  53.2165 236.1511 0001009  87.0654 273.0454 15.08841179 62372,6917.877,95.437,540.44,539.044,0.0
52681.0,STARLINK-4068,PAYLOAD,2023-07-01 20:48:36,15.08836779,9.11e-05,53.2155,231.6908,89.1262,270.9834,2.9265e-05,1.78e-06,0.0,0 STARLINK-4068,1 52681U 22053AB  23182.86708829  .00000178  00000-0  29265-4 0  9992,2 52681  53.2155 231.6908 0000911  89.1262 270.9834 15.08836779 62525,6917.89,95.438,540.385,539.125,0.0
52681.0,STARLINK-4068,PAYLOAD,2023-07-03 09:22:28,15.08842869,8.75e-05,53.2154,224.8516,81.1821,278.927,0.00010138,1.326e-05,0.0,0 STARLINK-4068,1 52681U 22053AB  23184.39060268  .00001326  00000-0  10138-3 0  9994,2 52681  53.2154 224.8516 0000875  81.1821 278.9270 15.08842869 62759,6917.872,95.437,540.342,539.131,0.0
52681.0,STARLINK-4068,PAYLOAD,2023-07-04 02:51:43,15.08836953,9.35e-05,53.2157,221.5805,82.2352,277.8746,4.4287e-05,4.17e-06,0.0,0 STARLINK-4068,1 52681U 22053AB  23185.11924795  .00000417  00000-0  44287-4 0  9992,2 52681  53.2157 221.5805 0000935  82.2352 277.8746 15.08836953 62860,6917.89,95.438,540.402,539.108,0.0
